[{"OBJECT_NAME":"STARLINK-35926","OBJECT_ID":"2025-271AB","EPOCH":"2026-03-09T10:17:59.123328","MEAN_MOTION":15.30180363,"ECCENTRICITY":0.00011082,"INCLINATION":53.1576,"RA_OF_ASC_NODE":141.3613,"ARG_OF_PERICENTER":91.4584,"MEAN_ANOMALY":268.6543,"EPHEMERIS_TYPE":0,"CLASSIFICATION_TYPE":"U","NORAD_CAT_ID":66642,"ELEMENT_SET_NO":999,"REV_AT_EPOCH":1748,"BSTAR":0.00040891163,"MEAN_MOTION_DOT":0.00011764,"MEAN_MOTION_DDOT":0},{"OBJECT_NAME":"OBJECT D","OBJECT_ID":"2021-102D","EPOCH":"2026-03-09T14:47:14.426880","MEAN_MOTION":15.2846442,"ECCENTRICITY":0.0009157,"INCLINATION":97.3342,"RA_OF_ASC_NODE":112.2633,"ARG_OF_PERICENTER":187.6206,"MEAN_ANOMALY":172.4897,"EPHEMERIS_TYPE":0,"CLASSIFICATION_TYPE":"U","NORAD_CAT_ID":49398,"ELEMENT_SET_NO":999,"REV_AT_EPOCH":23880,"BSTAR":0.00046011,"MEAN_MOTION_DOT":0.00012697,"MEAN_MOTION_DDOT":0}]
